[{"OBJECT_NAME":"STARLINK-34894","OBJECT_ID":"2025-216V","EPOCH":"2026-03-09T22:38:15.718272","MEAN_MOTION":15.30176939,"ECCENTRICITY":9.892e-5,"INCLINATION":53.1594,"RA_OF_ASC_NODE":331.6281,"ARG_OF_PERICENTER":41.0421,"MEAN_ANOMALY":319.0654,"EPHEMERIS_TYPE":0,"CLASSIFICATION_TYPE":"U","NORAD_CAT_ID":65753,"ELEMENT_SET_NO":999,"REV_AT_EPOCH":2655,"BSTAR":0.00021390176,"MEAN_MOTION_DOT":5.977e-5,"MEAN_MOTION_DDOT":0},{"OBJECT_NAME":"TRANSPORTER-1 OBJECT AA","OBJECT_ID":"2021-006AA","EPOCH":"2026-03-09T22:58:14.761920","MEAN_MOTION":15.29982294,"ECCENTRICITY":0.00086604,"INCLINATION":97.2381,"RA_OF_ASC_NODE":112.457,"ARG_OF_PERICENTER":185.709,"MEAN_ANOMALY":174.4054,"EPHEMERIS_TYPE":0,"CLASSIFICATION_TYPE":"U","NORAD_CAT_ID":47437,"ELEMENT_SET_NO":999,"REV_AT_EPOCH":28414,"BSTAR":0.0002197941,"MEAN_MOTION_DOT":6.312e-5,"MEAN_MOTION_DDOT":0}]
